ONEWEB-0371             
1 49297U 21090U   25033.48138714 -.00000001  00000+0 -36064-4 0  9997
2 49297  87.9148  44.2978 0001971  92.7717 267.3641 13.19724546160542
ONEWEB-0372             
1 49298U 21090V   25033.46955568  .00000019  00000+0  15453-4 0  9996
2 49298  87.9271  13.8720 0001840  88.7564 271.3780 13.20771933163879
ONEWEB-0373             
1 49299U 21090W   25033.95107237  .00000057  00000+0  10721-3 0  9997
2 49299  87.9271  13.7893 0001596  80.7940 279.3373 13.20771171165128
ONEWEB-0374             
1 49300U 21090X   25033.93830926 -.00000135  00000+0 -39750-3 0  9998
2 49300  87.9000  28.9639 0001289  86.4131 273.7146 13.14502930161974
ONEWEB-0375             
1 49301U 21090Y   25033.48389008  .00000149  00000+0  33465-3 0  9999
2 49301  87.9281  13.8575 0001522  64.5580 295.5711 13.20770091164563
ONEWEB-0376             
1 49302U 21090Z   25033.47979441  .00000130  00000+0  29345-3 0  9997
2 49302  87.9139  44.2914 0001940  98.6348 261.5004 13.19723842160547
ONEWEB-0377             
1 49303U 21090AA  25033.92435409  .00000037  00000+0  58971-4 0  9993
2 49303  87.9275  13.7639 0002067  75.9652 284.1711 13.20770294164614
ONEWEB-0378             
1 49304U 21090AB  25033.49191060 -.00000126  00000+0 -34101-3 0  9997
2 49304  87.9278  13.8555 0001800  81.3692 278.7645 13.20770562163820
